ORBCOMM FM05            
1 25117U 97084F   25265.69639698  .00002393  00000+0  70217-3 0  9996
2 25117  45.0140 259.7802 0004151 316.4622  43.5902 14.46228939454723
ORBCOMM FM06            
1 25118U 97084G   25265.71152683  .00002634  00000+0  76646-3 0  9994
2 25118  45.0135 259.3349 0003287 307.3014 222.3358 14.46379079455649
ORBCOMM FM07            
1 25119U 97084H   25265.69218853  .00002428  00000+0  70926-3 0  9990
2 25119  45.0128 260.1902 0004993 318.6589  41.3885 14.46386849455630
ORBCOMM FM03            
1 25158U 98007B   25265.81594825  .00001555  00000+0  58879-3 0  9992
2 25158 107.9642 336.1891 0042606  78.2027 282.3888 14.34708490438045
ORBCOMM FM04            
1 25159U 98007C   25265.85314816  .00001661  00000+0  62403-3 0  9993
2 25159 107.9627 339.5514 0038379  75.3713 285.1678 14.34954123438235
ORBCOMM FM17            
1 25413U 98046A   25265.43575222  .00001385  00000+0  52800-3 0  9996
2 25413  44.9935 158.5849 0003987 346.3040  13.7698 14.35268088417144
ORBCOMM FM18            
1 25414U 98046B   25265.77667137  .00002011  00000+0  69413-3 0  9996
2 25414  44.9929  71.7444 0004551  67.0269 293.1060 14.38791561418309
ORBCOMM FM19            
1 25415U 98046C   25265.73909520  .00001963  00000+0  68126-3 0  9993
2 25415  44.9939  74.0740 0003310  64.9979 309.2133 14.38603405418255
